start=new Date('2022-06-28T00:00:00.000Z').valueOf();
sats=[{"LAUNCH_DATE":"2020-08-18","OBJECT_ID":"2020-057AV","DECAY_DATE":null,"REF_FRAME":"TEME","NORAD_CAT_ID":"46160","SEMIMAJOR_AXIS":"6925.364","ELEMENT_SET_NO":"999","RA_OF_ASC_NODE":"240.7051","TLE_LINE1":"1 46160U 20057AV  22178.86440973 -.00000638  00000-0 -23939-4 0  9991","ARG_OF_PERICENTER":"50.3003","OBJECT_TYPE":"PAYLOAD","FILE":"3504144","EPOCH":"2022-06-27T20:44:45.000672","CENTER_NAME":"EARTH","TIME_SYSTEM":"UTC","TLE_LINE2":"2 46160  53.0539 240.7051 0001843  50.3003 309.8149 15.06395005103990","REV_AT_EPOCH":"10399","OBJECT_NAME":"STARLINK-1598","BSTAR":"-0.00002393900000","APOAPSIS":"548.505","PERIAPSIS":"545.953","MEAN_MOTION_DOT":"-0.00000638","RCS_SIZE":"LARGE","MEAN_ELEMENT_THEORY":"SGP4","MEAN_ANOMALY":"309.8149","PERIOD":"95.592","INCLINATION":"53.0539","GP_ID":"206989977","EPHEMERIS_TYPE":"0","SITE":"AFETR","MEAN_MOTION":"15.06395005","COUNTRY_CODE":"US","MEAN_MOTION_DDOT":"0.0000000000000","ECCENTRICITY":"0.00018430","CLASSIFICATION_TYPE":"U"},{"SEMIMAJOR_AXIS":"6925.364","ELEMENT_SET_NO":"999","TLE_LINE1":"1 46161U 20057AW  22178.64325054  .00000427  00000-0  47538-4 0  9995","RA_OF_ASC_NODE":"241.6955","DECAY_DATE":null,"REF_FRAME":"TEME","NORAD_CAT_ID":"46161","LAUNCH_DATE":"2020-08-18","OBJECT_ID":"2020-057AW","FILE":"3504144","OBJECT_TYPE":"PAYLOAD","ARG_OF_PERICENTER":"80.2534","MEAN_MOTION_DOT":"0.00000427","PERIAPSIS":"546.294","MEAN_ELEMENT_THEORY":"SGP4","RCS_SIZE":"LARGE","OBJECT_NAME":"STARLINK-1600","APOAPSIS":"548.164","BSTAR":"0.00004753800000","REV_AT_EPOCH":"10396","TLE_LINE2":"2 46161  53.0532 241.6955 0001350  80.2534 279.8608 15.06394844103964","EPOCH":"2022-06-27T15:26:16.846656","CENTER_NAME":"EARTH","TIME_SYSTEM":"UTC","MEAN_MOTION_DDOT":"0.0000000000000","CLASSIFICATION_TYPE":"U","ECCENTRICITY":"0.00013500","SITE":"AFETR","EPHEMERIS_TYPE":"0","COUNTRY_CODE":"US","MEAN_MOTION":"15.06394844","INCLINATION":"53.0532","GP_ID":"206990223","MEAN_ANOMALY":"279.8608","PERIOD":"95.592"},{"MEAN_MOTION_DOT":"-0.00001469","PERIAPSIS":"546.304","MEAN_ELEMENT_THEORY":"SGP4","RCS_SIZE":"LARGE","OBJECT_NAME":"STARLINK-1603","APOAPSIS":"548.164","BSTAR":"-0.00007976500000","REV_AT_EPOCH":"10397","TLE_LINE2":"2 46162  53.0539 241.6982 0001343  65.7377 294.3753 15.06393250103971","EPOCH":"2022-06-27T15:31:35.509728","CENTER_NAME":"EARTH","TIME_SYSTEM":"UTC","MEAN_MOTION_DDOT":"0.0000000000000","CLASSIFICATION_TYPE":"U","ECCENTRICITY":"0.00013430","SITE":"AFETR","EPHEMERIS_TYPE":"0","COUNTRY_CODE":"US","MEAN_MOTION":"15.06393250","GP_ID":"206988476","INCLINATION":"53.0539","PERIOD":"95.593","MEAN_ANOMALY":"294.3753","ELEMENT_SET_NO":"999","SEMIMAJOR_AXIS":"6925.369","TLE_LINE1":"1 46162U 20057AX  22178.64693877 -.00001469  00000-0 -79765-4 0  9993","RA_OF_ASC_NODE":"241.6982","DECAY_DATE":null,"REF_FRAME":"TEME","NORAD_CAT_ID":"46162","LAUNCH_DATE":"2020-08-18","OBJECT_ID":"2020-057AX","FILE":"3504144","OBJECT_TYPE":"PAYLOAD","ARG_OF_PERICENTER":"65.7377"},{"PERIOD":"95.592","MEAN_ANOMALY":"306.9869","INCLINATION":"53.0533","GP_ID":"206988726","EPHEMERIS_TYPE":"0","SITE":"AFETR","MEAN_MOTION":"15.06406263","COUNTRY_CODE":"US","MEAN_MOTION_DDOT":"0.0000000000000","CLASSIFICATION_TYPE":"U","ECCENTRICITY":"0.00016310","EPOCH":"2022-06-27T20:15:32.470848","CENTER_NAME":"EARTH","TIME_SYSTEM":"UTC","TLE_LINE2":"2 46163  53.0533 220.7875 0001631  53.1269 306.9869 15.06406263103029","REV_AT_EPOCH":"10302","OBJECT_NAME":"STARLINK-1610","BSTAR":"0.00003999100000","APOAPSIS":"548.324","PERIAPSIS":"546.065","MEAN_MOTION_DOT":"0.00000314","RCS_SIZE":"LARGE","MEAN_ELEMENT_THEORY":"SGP4","ARG_OF_PERICENTER":"53.1269","OBJECT_TYPE":"PAYLOAD","FILE":"3504144","LAUNCH_DATE":"2020-08-18","OBJECT_ID":"2020-057AY","DECAY_DATE":null,"REF_FRAME":"TEME","NORAD_CAT_ID":"46163","ELEMENT_SET_NO":"999","SEMIMAJOR_AXIS":"6925.329","TLE_LINE1":"1 46163U 20057AY  22178.84412582  .00000314  00000-0  39991-4 0  9991","RA_OF_ASC_NODE":"220.7875"},{"FILE":"3504144","OBJECT_TYPE":"PAYLOAD","ARG_OF_PERICENTER":"71.5271","ELEMENT_SET_NO":"999","SEMIMAJOR_AXIS":"6925.342","RA_OF_ASC_NODE":"220.8088","TLE_LINE1":"1 46164U 20057AZ  22178.84044202  .00000074  00000-0  23840-4 0  9991","REF_FRAME":"TEME","DECAY_DATE":null,"NORAD_CAT_ID":"46164","LAUNCH_DATE":"2020-08-18","OBJECT_ID":"2020-057AZ","MEAN_MOTION_DDOT":"0.0000000000000","CLASSIFICATION_TYPE":"U","ECCENTRICITY":"0.00014550","SITE":"AFETR","EPHEMERIS_TYPE":"0","COUNTRY_CODE":"US","MEAN_MOTION":"15.06402028","GP_ID":"206989478","INCLINATION":"53.0537","PERIOD":"95.592","MEAN_ANOMALY":"288.5876","MEAN_MOTION_DOT":"0.00000074","PERIAPSIS":"546.200","MEAN_ELEMENT_THEORY":"SGP4","RCS_SIZE":"LARGE","OBJECT_NAME":"STARLINK-1612","APOAPSIS":"548.215","BSTAR":"0.00002384000000","REV_AT_EPOCH":"10428","TLE_LINE2":"2 46164  53.0537 220.8088 0001455  71.5271 288.5876 15.06402028104289","EPOCH":"2022-06-27T20:10:14.190528","TIME_SYSTEM":"UTC","CENTER_NAME":"EARTH"},{"SEMIMAJOR_AXIS":"6903.879","ELEMENT_SET_NO":"999","RA_OF_ASC_NODE":"258.1452","TLE_LINE1":"1 46165U 20057BA  22178.53357035  .00014797  00000-0  83350-3 0  9997","REF_FRAME":"TEME","DECAY_DATE":null,"NORAD_CAT_ID":"46165","LAUNCH_DATE":"2020-08-18","OBJECT_ID":"2020-057BA","FILE":"3503902","ARG_OF_PERICENTER":"301.3695","OBJECT_TYPE":"PAYLOAD","PERIAPSIS":"525.224","MEAN_MOTION_DOT":"0.00014797","RCS_SIZE":"LARGE","MEAN_ELEMENT_THEORY":"SGP4","OBJECT_NAME":"STARLINK-1613","BSTAR":"0.00083350000000","APOAPSIS":"526.264","TLE_LINE2":"2 46165  53.0525 258.1452 0000753 301.3695  58.7223 15.13432272102474","REV_AT_EPOCH":"10247","EPOCH":"2022-06-27T12:48:20.478240","TIME_SYSTEM":"UTC","CENTER_NAME":"EARTH","MEAN_MOTION_DDOT":"0.0000000000000","CLASSIFICATION_TYPE":"U","ECCENTRICITY":"0.00007530","EPHEMERIS_TYPE":"0","SITE":"AFETR","MEAN_MOTION":"15.13432272","COUNTRY_CODE":"US","GP_ID":"206958679","INCLINATION":"53.0525","PERIOD":"95.148","MEAN_ANOMALY":"58.7223"},{"OBJECT_TYPE":"PAYLOAD","ARG_OF_PERICENTER":"80.5160","FILE":"3503902","LAUNCH_DATE":"2020-08-18","OBJECT_ID":"2020-057BB","ELEMENT_SET_NO":"999","SEMIMAJOR_AXIS":"6925.361","TLE_LINE1":"1 46166U 20057BB  22178.49397432 -.00000137  00000-0  96810-5 0  9999","RA_OF_ASC_NODE":"262.3722","REF_FRAME":"TEME","DECAY_DATE":null,"NORAD_CAT_ID":"46166","GP_ID":"206958929","INCLINATION":"53.0547","PERIOD":"95.592","MEAN_ANOMALY":"279.5985","MEAN_MOTION_DDOT":"0.0000000000000","CLASSIFICATION_TYPE":"U","ECCENTRICITY":"0.00013840","SITE":"AFETR","EPHEMERIS_TYPE":"0","COUNTRY_CODE":"US","MEAN_MOTION":"15.06396099","REV_AT_EPOCH":"10241","TLE_LINE2":"2 46166  53.0547 262.3722 0001384  80.5160 279.5985 15.06396099102410","EPOCH":"2022-06-27T11:51:19.381248","TIME_SYSTEM":"UTC","CENTER_NAME":"EARTH","MEAN_MOTION_DOT":"-0.00000137","PERIAPSIS":"546.267","MEAN_ELEMENT_THEORY":"SGP4","RCS_SIZE":"LARGE","OBJECT_NAME":"STARLINK-1615","APOAPSIS":"548.184","BSTAR":"0.00000968100000"},{"MEAN_MOTION":"15.06400180","COUNTRY_CODE":"US","EPHEMERIS_TYPE":"0","SITE":"AFETR","ECCENTRICITY":"0.00016340","CLASSIFICATION_TYPE":"U","MEAN_MOTION_DDOT":"0.0000000000000","MEAN_ANOMALY":"291.5334","PERIOD":"95.592","INCLINATION":"53.0532","GP_ID":"206959681","BSTAR":"0.00005777400000","APOAPSIS":"548.345","OBJECT_NAME":"STARLINK-1626","RCS_SIZE":"LARGE","MEAN_ELEMENT_THEORY":"SGP4","PERIAPSIS":"546.081","MEAN_MOTION_DOT":"0.00000579","CENTER_NAME":"EARTH","TIME_SYSTEM":"UTC","EPOCH":"2022-06-27T12:12:32.615712","TLE_LINE2":"2 46167  53.0532 262.3076 0001634  68.5829 291.5334 15.06400180102412","REV_AT_EPOCH":"10241","FILE":"3503902","ARG_OF_PERICENTER":"68.5829","OBJECT_TYPE":"PAYLOAD","NORAD_CAT_ID":"46167","DECAY_DATE":null,"REF_FRAME":"TEME","RA_OF_ASC_NODE":"262.3076","TLE_LINE1":"1 46167U 20057BC  22178.50871083  .00000579  00000-0  57774-4 0  9995","SEMIMAJOR_AXIS":"6925.348","ELEMENT_SET_NO":"999","OBJECT_ID":"2020-057BC","LAUNCH_DATE":"2020-08-18"},{"TIME_SYSTEM":"UTC","CENTER_NAME":"EARTH","EPOCH":"2022-06-27T19:39:44.968608","REV_AT_EPOCH":"10315","TLE_LINE2":"2 46168  53.0538 210.9942 0001541  60.2091 299.9051 15.06397229103156","APOAPSIS":"548.289","BSTAR":"0.00014985000000","OBJECT_NAME":"STARLINK-1627","MEAN_ELEMENT_THEORY":"SGP4","RCS_SIZE":"LARGE","MEAN_MOTION_DOT":"0.00001951","PERIAPSIS":"546.155","PERIOD":"95.592","MEAN_ANOMALY":"299.9051","GP_ID":"206989978","INCLINATION":"53.0538","COUNTRY_CODE":"US","MEAN_MOTION":"15.06397229","SITE":"AFETR","EPHEMERIS_TYPE":"0","CLASSIFICATION_TYPE":"U","ECCENTRICITY":"0.00015410","MEAN_MOTION_DDOT":"0.0000000000000","OBJECT_ID":"2020-057BD","LAUNCH_DATE":"2020-08-18","NORAD_CAT_ID":"46168","REF_FRAME":"TEME","DECAY_DATE":null,"TLE_LINE1":"1 46168U 20057BD  22178.81927047  .00001951  00000-0  14985-3 0  9993","RA_OF_ASC_NODE":"210.9942","ELEMENT_SET_NO":"999","SEMIMAJOR_AXIS":"6925.357","OBJECT_TYPE":"PAYLOAD","ARG_OF_PERICENTER":"60.2091","FILE":"3504144"},{"OBJECT_ID":"2020-057BE","LAUNCH_DATE":"2020-08-18","NORAD_CAT_ID":"46169","DECAY_DATE":null,"REF_FRAME":"TEME","TLE_LINE1":"1 46169U 20057BE  22178.59791495 -.00001423  00000-0 -78523-4 0  9990","RA_OF_ASC_NODE":"261.8936","SEMIMAJOR_AXIS":"6927.858","ELEMENT_SET_NO":"999","ARG_OF_PERICENTER":"81.1077","OBJECT_TYPE":"PAYLOAD","FILE":"3504144","TIME_SYSTEM":"UTC","CENTER_NAME":"EARTH","EPOCH":"2022-06-27T14:20:59.851680","TLE_LINE2":"2 46169  53.0008 261.8936 0001362  81.1077 279.0065 15.05581593102380","REV_AT_EPOCH":"10238","BSTAR":"-0.00007852300000","APOAPSIS":"550.667","OBJECT_NAME":"STARLINK-1628","RCS_SIZE":"LARGE","MEAN_ELEMENT_THEORY":"SGP4","PERIAPSIS":"548.779","MEAN_MOTION_DOT":"-0.00001423","MEAN_ANOMALY":"279.0065","PERIOD":"95.644","GP_ID":"206990224","INCLINATION":"53.0008","MEAN_MOTION":"15.05581593","COUNTRY_CODE":"US","EPHEMERIS_TYPE":"0","SITE":"AFETR","ECCENTRICITY":"0.00013620","CLASSIFICATION_TYPE":"U","MEAN_MOTION_DDOT":"0.0000000000000"}];
